GEOSCAN-3 (RS92S3)
1 64893U 25155T   26190.73684494  .00014387  00000-0  40966-3 0  9992
2 64893  97.4543 160.8896 0008635 101.3562 258.8652 15.36180267 84313
INNOSAT3 (RS92S0)
1 64894U 25155U   26190.79190147  .00033142  00000-0  68947-3 0  9995
2 64894  97.4489 162.8567 0008301 102.4708 257.7470 15.45530418 84452
KNACKSAT-2
1 67683U 98067XZ  26189.28582417  .00035828  00000-0  40782-3 0  9993
2 67683  51.6260 188.2015 0008209 303.7179  56.3032 15.61884949 23577
