OBJECT_NAME,OBJECT_ID,EPOCH,MEAN_MOTION,ECCENTRICITY,INCLINATION,RA_OF_ASC_NODE,ARG_OF_PERICENTER,MEAN_ANOMALY,EPHEMERIS_TYPE,CLASSIFICATION_TYPE,NORAD_CAT_ID,ELEMENT_SET_NO,REV_AT_EPOCH,BSTAR,MEAN_MOTION_DOT,MEAN_MOTION_DDOT
GEOSCAN 3 (RS92S3),2025-155T,2026-07-09T17:41:03.402816,15.36180267,.0008635,97.4543,160.8896,101.3562,258.8652,0,U,64893,999,8431,.40966E-3,.14387E-3,0
INNOSAT 3 (RS92S0),2025-155U,2026-07-09T19:00:20.287008,15.45530418,.0008301,97.4489,162.8567,102.4708,257.7470,0,U,64894,999,8445,.68947E-3,.33142E-3,0
KNACKSAT-2,1998-067XZ,2026-07-08T06:51:35.208288,15.61884949,.00082087,51.6260,188.2015,303.7179,56.3032,0,U,67683,999,2357,.40782476E-3,.35828E-3,0
